<?xml version="1.0" encoding="UTF-8"?>
<kml xmlns="http://www.opengis.net/kml/2.2">
  <Document>
    <name>Pipeline ROW</name>
    <Style id="poly-FFEA00-1-79-normal">
      <LineStyle>
        <color>ff00eaff</color>
        <width>0.001</width>
      </LineStyle>
      <PolyStyle>
        <color>4f00eaff</color>
        <fill>1</fill>
        <outline>1</outline>
      </PolyStyle>
    </Style>
    <Style id="poly-FFEA00-1-79-highlight">
      <LineStyle>
        <color>ff00eaff</color>
        <width>0.0015</width>
      </LineStyle>
      <PolyStyle>
        <color>4f00eaff</color>
        <fill>1</fill>
        <outline>1</outline>
      </PolyStyle>
    </Style>
    <StyleMap id="poly-FFEA00-1-79">
      <Pair>
        <key>normal</key>
        <styleUrl>#poly-FFEA00-1-79-normal</styleUrl>
      </Pair>
      <Pair>
        <key>highlight</key>
        <styleUrl>#poly-FFEA00-1-79-highlight</styleUrl>
      </Pair>
    </StyleMap>
    <Style id="poly-FFEA00-1-79-nodesc-normal">
      <LineStyle>
        <color>ff00eaff</color>
        <width>0.001</width>
      </LineStyle>
      <PolyStyle>
        <color>4f00eaff</color>
        <fill>1</fill>
        <outline>1</outline>
      </PolyStyle>
      <BalloonStyle>
        <text><![CDATA[<h3>$[name]</h3>]]></text>
      </BalloonStyle>
    </Style>
    <Style id="poly-FFEA00-1-79-nodesc-highlight">
      <LineStyle>
        <color>ff00eaff</color>
        <width>0.0015</width>
      </LineStyle>
      <PolyStyle>
        <color>4f00eaff</color>
        <fill>1</fill>
        <outline>1</outline>
      </PolyStyle>
      <BalloonStyle>
        <text><![CDATA[<h3>$[name]</h3>]]></text>
      </BalloonStyle>
    </Style>
    <StyleMap id="poly-FFEA00-1-79-nodesc">
      <Pair>
        <key>normal</key>
        <styleUrl>#poly-FFEA00-1-79-nodesc-normal</styleUrl>
      </Pair>
      <Pair>
        <key>highlight</key>
        <styleUrl>#poly-FFEA00-1-79-nodesc-highlight</styleUrl>
      </Pair>
    </StyleMap>
    <Placemark>
      <name/>
      <description><![CDATA[Entity   LWPolyline    <br>   Handle   E590    <br>   Layer   V-DEED    <br>   LyrFrzn   0    <br>   LyrOn   1    <br>   Color   2    <br>   Linetype   ROW    <br>   Elevation   0    <br>   LineWt   25    <br>   RefName       <br>   DocUpdate   7/20/2023 7:14:45 AM    <br>   DocId   2.055458e+18    <br>   GlobalWidth   0    <br>   GlobalID   {4530FCB0-E6A6-40E1-BBA6-30F6DC07CA86}    <br>   Shape__Area   11939.775166    <br>   Shape__Length   789.75713    <br>   CreationDate   4/1/2024 4:42:18 PM    <br>   Creator   jhlebasko    <br>   EditDate   4/1/2024 4:42:18 PM    <br>   Editor   jhlebasko]]></description>
      <styleUrl>#poly-FFEA00-1-79</styleUrl>
      <Polygon>
        <outerBoundaryIs>
          <LinearRing>
            <tessellate>1</tessellate>
            <coordinates>
              -111.922145,41.236986,0
              -111.922111,41.236996,0
              -111.922049,41.237012,0
              -111.921986,41.237023,0
              -111.921922,41.237031,0
              -111.921858,41.237034,0
              -111.920858,41.237057,0
              -111.920862,41.237147,0
              -111.921861,41.237125,0
              -111.921936,41.237121,0
              -111.92201,41.237112,0
              -111.922083,41.237099,0
              -111.922154,41.237081,0
              -111.922188,41.237071,0
              -111.922145,41.236986,0
            </coordinates>
          </LinearRing>
        </outerBoundaryIs>
      </Polygon>
    </Placemark>
    <Placemark>
      <name>Pipeline Alignment and ROW</name>
      <styleUrl>#poly-FFEA00-1-79-nodesc</styleUrl>
      <Polygon>
        <outerBoundaryIs>
          <LinearRing>
            <tessellate>1</tessellate>
            <coordinates>
              -111.911491,41.238466,0
              -111.911525,41.238455,0
              -111.912161,41.238229,0
              -111.912252,41.238201,0
              -111.912346,41.238179,0
              -111.912441,41.238164,0
              -111.912539,41.238155,0
              -111.912637,41.238153,0
              -111.912734,41.238158,0
              -111.912831,41.238169,0
              -111.912926,41.238187,0
              -111.913018,41.238212,0
              -111.913836,41.238462,0
              -111.913932,41.238488,0
              -111.91403,41.238507,0
              -111.91413,41.238521,0
              -111.914231,41.238527,0
              -111.914333,41.238527,0
              -111.914434,41.238521,0
              -111.914534,41.238508,0
              -111.914632,41.238489,0
              -111.914728,41.238463,0
              -111.914821,41.238432,0
              -111.914909,41.238394,0
              -111.914994,41.238351,0
              -111.915072,41.238303,0
              -111.915146,41.23825,0
              -111.915213,41.238193,0
              -111.915273,41.238131,0
              -111.915326,41.238066,0
              -111.915448,41.237901,0
              -111.915503,41.237831,0
              -111.915567,41.237766,0
              -111.915637,41.237706,0
              -111.915715,41.23765,0
              -111.915799,41.237599,0
              -111.915888,41.237555,0
              -111.915982,41.237516,0
              -111.91608,41.237483,0
              -111.916182,41.237458,0
              -111.916286,41.237439,0
              -111.916936,41.237343,0
              -111.917063,41.23733,0
              -111.91719,41.237322,0
              -111.917318,41.237321,0
              -111.917446,41.237327,0
              -111.917649,41.237343,0
              -111.917781,41.237349,0
              -111.917913,41.237348,0
              -111.918045,41.23734,0
              -111.918176,41.237326,0
              -111.919141,41.237184,0
              -111.919253,41.23717,0
              -111.919367,41.237161,0
              -111.919481,41.237156,0
              -111.9204,41.237135,0
              -111.920398,41.23709,0
              -111.919479,41.237111,0
              -111.919362,41.237116,0
              -111.919245,41.237125,0
              -111.919129,41.237139,0
              -111.918164,41.237281,0
              -111.918038,41.237295,0
              -111.91791,41.237303,0
              -111.917783,41.237304,0
              -111.917655,41.237298,0
              -111.917451,41.237281,0
              -111.917319,41.237276,0
              -111.917187,41.237277,0
              -111.917056,41.237285,0
              -111.916925,41.237299,0
              -111.916274,41.237394,0
              -111.916175,41.237412,0
              -111.916078,41.237436,0
              -111.915983,41.237465,0
              -111.915892,41.2375,0
              -111.915805,41.237541,0
              -111.915723,41.237586,0
              -111.915645,41.237636,0
              -111.915573,41.237691,0
              -111.915507,41.23775,0
              -111.915448,41.237813,0
              -111.915395,41.237879,0
              -111.915274,41.238044,0
              -111.91522,41.238109,0
              -111.915158,41.238171,0
              -111.91509,41.238229,0
              -111.915015,41.238281,0
              -111.914933,41.238328,0
              -111.914847,41.23837,0
              -111.914756,41.238405,0
              -111.914661,41.238434,0
              -111.914563,41.238457,0
              -111.914462,41.238472,0
              -111.914361,41.238481,0
              -111.914258,41.238483,0
              -111.914156,41.238477,0
              -111.914055,41.238465,0
              -111.913956,41.238446,0
              -111.913859,41.23842,0
              -111.913041,41.23817,0
              -111.912943,41.238144,0
              -111.912843,41.238125,0
              -111.912741,41.238113,0
              -111.912638,41.238108,0
              -111.912534,41.23811,0
              -111.912432,41.238119,0
              -111.91233,41.238135,0
              -111.912232,41.238158,0
              -111.912136,41.238188,0
              -111.911499,41.238413,0
              -111.911466,41.238425,0
              -111.911491,41.238466,0
            </coordinates>
          </LinearRing>
        </outerBoundaryIs>
      </Polygon>
    </Placemark>
    <Placemark>
      <name/>
      <description><![CDATA[Entity   LWPolyline    <br>   Handle   EA91    <br>   Layer   V-DEED    <br>   LyrFrzn   0    <br>   LyrOn   1    <br>   Color   2    <br>   Linetype   ROW    <br>   Elevation   0    <br>   LineWt   25    <br>   RefName       <br>   DocUpdate   7/20/2023 7:14:45 AM    <br>   DocId   2.055458e+18    <br>   GlobalWidth   0    <br>   GlobalID   {8178F62E-40C6-4B65-A20B-F72C0AE4043F}    <br>   Shape__Area   37793.742025    <br>   Shape__Length   4613.06768    <br>   CreationDate   4/1/2024 4:42:18 PM    <br>   Creator   jhlebasko    <br>   EditDate   4/1/2024 4:42:18 PM    <br>   Editor   jhlebasko]]></description>
      <styleUrl>#poly-FFEA00-1-79</styleUrl>
      <Polygon>
        <outerBoundaryIs>
          <LinearRing>
            <tessellate>1</tessellate>
            <coordinates>
              -111.911466,41.238425,0
              -111.911355,41.23846,0
              -111.911242,41.238492,0
              -111.911128,41.238519,0
              -111.911011,41.238543,0
              -111.910644,41.23861,0
              -111.910489,41.238641,0
              -111.910336,41.238679,0
              -111.910186,41.238723,0
              -111.910039,41.238772,0
              -111.909895,41.238827,0
              -111.908757,41.239298,0
              -111.908681,41.239333,0
              -111.908609,41.239371,0
              -111.90854,41.239413,0
              -111.908476,41.239459,0
              -111.908417,41.239509,0
              -111.908285,41.239627,0
              -111.908192,41.239705,0
              -111.908093,41.239778,0
              -111.907987,41.239846,0
              -111.907875,41.239908,0
              -111.907758,41.239964,0
              -111.907636,41.240014,0
              -111.90751,41.240057,0
              -111.90738,41.240094,0
              -111.907247,41.240124,0
              -111.903977,41.240789,0
              -111.903902,41.240806,0
              -111.903919,41.240849,0
              -111.903993,41.240833,0
              -111.907262,41.240168,0
              -111.907386,41.24014,0
              -111.907506,41.240107,0
              -111.907624,41.240068,0
              -111.907739,41.240024,0
              -111.907849,41.239975,0
              -111.907956,41.23992,0
              -111.908057,41.239861,0
              -111.908154,41.239797,0
              -111.908245,41.239729,0
              -111.908331,41.239657,0
              -111.908463,41.239538,0
              -111.908519,41.239491,0
              -111.90858,41.239447,0
              -111.908645,41.239407,0
              -111.908714,41.239371,0
              -111.908786,41.239338,0
              -111.909924,41.238867,0
              -111.910065,41.238813,0
              -111.910209,41.238764,0
              -111.910356,41.238722,0
              -111.910506,41.238685,0
              -111.910658,41.238654,0
              -111.911025,41.238587,0
              -111.911144,41.238563,0
              -111.911262,41.238535,0
              -111.911378,41.238502,0
              -111.911491,41.238466,0
              -111.911466,41.238425,0
            </coordinates>
          </LinearRing>
        </outerBoundaryIs>
      </Polygon>
    </Placemark>
    <Placemark>
      <name/>
      <description><![CDATA[Entity   LWPolyline    <br>   Handle   EAA2    <br>   Layer   V-DEED    <br>   LyrFrzn   0    <br>   LyrOn   1    <br>   Color   2    <br>   Linetype   ROW    <br>   Elevation   0    <br>   LineWt   25    <br>   RefName       <br>   DocUpdate   7/20/2023 7:14:45 AM    <br>   DocId   2.055458e+18    <br>   GlobalWidth   0    <br>   GlobalID   {C12D0588-6500-45A3-98B6-CBA50F095DE9}    <br>   Shape__Area   9472.599044    <br>   Shape__Length   1181.211157    <br>   CreationDate   4/1/2024 4:42:18 PM    <br>   Creator   jhlebasko    <br>   EditDate   4/1/2024 4:42:18 PM    <br>   Editor   jhlebasko]]></description>
      <styleUrl>#poly-FFEA00-1-79</styleUrl>
      <Polygon>
        <outerBoundaryIs>
          <LinearRing>
            <tessellate>1</tessellate>
            <coordinates>
              -111.90193,41.241325,0
              -111.90195,41.241368,0
              -111.90325,41.241014,0
              -111.903471,41.240955,0
              -111.903694,41.2409,0
              -111.903919,41.240849,0
              -111.903902,41.240806,0
              -111.903676,41.240857,0
              -111.903452,41.240912,0
              -111.903229,41.240971,0
              -111.90193,41.241325,0
            </coordinates>
          </LinearRing>
        </outerBoundaryIs>
      </Polygon>
    </Placemark>
    <Placemark>
      <name>Pipeline Alignment and ROW</name>
      <styleUrl>#poly-FFEA00-1-79-nodesc</styleUrl>
      <Polygon>
        <outerBoundaryIs>
          <LinearRing>
            <tessellate>1</tessellate>
            <coordinates>
              -111.892302,41.246088,0
              -111.89234,41.246122,0
              -111.893085,41.245648,0
              -111.893159,41.245598,0
              -111.893226,41.245543,0
              -111.893288,41.245484,0
              -111.893344,41.245422,0
              -111.893393,41.245357,0
              -111.893435,41.24529,0
              -111.89347,41.245219,0
              -111.893498,41.245148,0
              -111.89354,41.245016,0
              -111.893573,41.24495,0
              -111.893613,41.244886,0
              -111.89366,41.244825,0
              -111.893714,41.244767,0
              -111.893774,41.244712,0
              -111.893839,41.244662,0
              -111.89391,41.244615,0
              -111.893985,41.244574,0
              -111.894065,41.244537,0
              -111.894149,41.244505,0
              -111.894917,41.244293,0
              -111.89511,41.244236,0
              -111.8953,41.244174,0
              -111.896842,41.24364,0
              -111.896978,41.24359,0
              -111.897111,41.243536,0
              -111.89724,41.243478,0
              -111.897366,41.243416,0
              -111.90006,41.242018,0
              -111.900245,41.241927,0
              -111.900434,41.241841,0
              -111.900628,41.241762,0
              -111.900827,41.241689,0
              -111.901029,41.241622,0
              -111.901235,41.241563,0
              -111.90195,41.241368,0
              -111.90193,41.241325,0
              -111.901215,41.24152,0
              -111.901007,41.241581,0
              -111.900802,41.241648,0
              -111.900601,41.241722,0
              -111.900405,41.241802,0
              -111.900213,41.241888,0
              -111.900026,41.241981,0
              -111.897332,41.243379,0
              -111.897208,41.24344,0
              -111.897081,41.243497,0
              -111.896951,41.24355,0
              -111.896817,41.243599,0
              -111.895275,41.244133,0
              -111.895087,41.244194,0
              -111.894896,41.244251,0
              -111.894126,41.244463,0
              -111.894038,41.244497,0
              -111.893953,41.244535,0
              -111.893873,41.24458,0
              -111.893798,41.244628,0
              -111.893729,41.244682,0
              -111.893666,41.24474,0
              -111.89361,41.244801,0
              -111.89356,41.244866,0
              -111.893518,41.244933,0
              -111.893483,41.245003,0
              -111.893439,41.245137,0
              -111.893413,41.245205,0
              -111.89338,41.245272,0
              -111.89334,41.245337,0
              -111.893293,41.245399,0
              -111.89324,41.245458,0
              -111.893181,41.245513,0
              -111.893117,41.245565,0
              -111.893047,41.245614,0
              -111.892302,41.246088,0
            </coordinates>
          </LinearRing>
        </outerBoundaryIs>
      </Polygon>
    </Placemark>
    <Placemark>
      <name/>
      <description><![CDATA[Entity   Circle    <br>   Handle   EAE4    <br>   Layer   V-DEED    <br>   LyrFrzn   0    <br>   LyrOn   1    <br>   Color   2    <br>   Linetype   PHANTOM2    <br>   Elevation   0    <br>   LineWt   25    <br>   RefName       <br>   DocUpdate   7/20/2023 7:14:45 AM    <br>   DocId   2.055458e+18    <br>   GlobalWidth   <Null>    <br>   GlobalID   {9098966D-5D02-4B21-97DC-7982DD30754D}    <br>   Shape__Area   40.537015    <br>   Shape__Length   22.598677    <br>   CreationDate   4/1/2024 4:42:18 PM    <br>   Creator   jhlebasko    <br>   EditDate   4/1/2024 4:42:18 PM    <br>   Editor   jhlebasko]]></description>
      <styleUrl>#poly-FFEA00-1-79</styleUrl>
      <Polygon>
        <outerBoundaryIs>
          <LinearRing>
            <tessellate>1</tessellate>
            <coordinates>
              -111.883718,41.248827,0
              -111.88372,41.248826,0
              -111.883723,41.248826,0
              -111.883725,41.248825,0
              -111.883727,41.248824,0
              -111.883728,41.248823,0
              -111.883729,41.248822,0
              -111.88373,41.24882,0
              -111.883731,41.248818,0
              -111.883731,41.248817,0
              -111.883731,41.248815,0
              -111.88373,41.248813,0
              -111.883729,41.248812,0
              -111.883728,41.24881,0
              -111.883726,41.248809,0
              -111.883725,41.248808,0
              -111.883722,41.248807,0
              -111.88372,41.248807,0
              -111.883718,41.248807,0
              -111.883716,41.248807,0
              -111.883714,41.248807,0
              -111.883711,41.248808,0
              -111.88371,41.248809,0
              -111.883708,41.24881,0
              -111.883707,41.248812,0
              -111.883706,41.248813,0
              -111.883705,41.248815,0
              -111.883705,41.248817,0
              -111.883705,41.248819,0
              -111.883706,41.24882,0
              -111.883707,41.248822,0
              -111.883708,41.248823,0
              -111.88371,41.248824,0
              -111.883712,41.248825,0
              -111.883714,41.248826,0
              -111.883716,41.248827,0
              -111.883718,41.248827,0
            </coordinates>
          </LinearRing>
        </outerBoundaryIs>
      </Polygon>
    </Placemark>
    <Placemark>
      <name>Pipeline Alignment and ROW</name>
      <styleUrl>#poly-FFEA00-1-79-nodesc</styleUrl>
      <Polygon>
        <outerBoundaryIs>
          <LinearRing>
            <tessellate>1</tessellate>
            <coordinates>
              -111.889284,41.248311,0
              -111.887985,41.249063,0
              -111.887891,41.249114,0
              -111.887791,41.249159,0
              -111.887688,41.249199,0
              -111.887581,41.249233,0
              -111.887471,41.249261,0
              -111.887359,41.249282,0
              -111.887245,41.249298,0
              -111.88713,41.249307,0
              -111.887014,41.24931,0
              -111.886898,41.249306,0
              -111.886783,41.249296,0
              -111.886669,41.24928,0
              -111.886553,41.249271,0
              -111.886437,41.249268,0
              -111.886321,41.249271,0
              -111.886205,41.249278,0
              -111.886007,41.249307,0
              -111.885902,41.249318,0
              -111.885796,41.249323,0
              -111.885691,41.249322,0
              -111.885586,41.249314,0
              -111.885212,41.249275,0
              -111.885101,41.249268,0
              -111.88499,41.249267,0
              -111.884879,41.249274,0
              -111.88477,41.249288,0
              -111.884662,41.249308,0
              -111.884279,41.249398,0
              -111.884159,41.24943,0
              -111.884041,41.249467,0
              -111.883926,41.249509,0
              -111.883814,41.249556,0
              -111.883706,41.249607,0
              -111.883739,41.249645,0
              -111.883845,41.249595,0
              -111.883954,41.24955,0
              -111.884066,41.249509,0
              -111.88418,41.249472,0
              -111.884298,41.249441,0
              -111.88468,41.249352,0
              -111.884782,41.249332,0
              -111.884887,41.249319,0
              -111.884992,41.249313,0
              -111.885098,41.249313,0
              -111.885204,41.24932,0
              -111.885577,41.249359,0
              -111.885687,41.249367,0
              -111.885798,41.249368,0
              -111.885908,41.249363,0
              -111.886018,41.249352,0
              -111.886214,41.249323,0
              -111.886325,41.249316,0
              -111.886436,41.249314,0
              -111.886548,41.249317,0
              -111.886658,41.249324,0
              -111.886776,41.249341,0
              -111.886896,41.249351,0
              -111.887016,41.249355,0
              -111.887136,41.249352,0
              -111.887255,41.249343,0
              -111.887373,41.249326,0
              -111.88749,41.249304,0
              -111.887603,41.249275,0
              -111.887714,41.24924,0
              -111.887821,41.249199,0
              -111.887924,41.249152,0
              -111.888022,41.249099,0
              -111.88932,41.248347,0
              -111.889284,41.248311,0
            </coordinates>
          </LinearRing>
        </outerBoundaryIs>
      </Polygon>
    </Placemark>
    <Placemark>
      <name>Pipeline Alignment and ROW</name>
      <styleUrl>#poly-FFEA00-1-79-nodesc</styleUrl>
      <Polygon>
        <outerBoundaryIs>
          <LinearRing>
            <tessellate>1</tessellate>
            <coordinates>
              -111.850669,41.25413,0
              -111.851278,41.253878,0
              -111.851362,41.253847,0
              -111.851449,41.253822,0
              -111.851539,41.253803,0
              -111.85163,41.25379,0
              -111.851723,41.253784,0
              -111.851816,41.253784,0
              -111.853629,41.25385,0
              -111.853732,41.253857,0
              -111.853833,41.25387,0
              -111.853933,41.253889,0
              -111.85403,41.253914,0
              -111.854125,41.253946,0
              -111.854215,41.253982,0
              -111.854298,41.254019,0
              -111.854328,41.25398,0
              -111.854246,41.253943,0
              -111.854151,41.253905,0
              -111.854052,41.253872,0
              -111.85395,41.253846,0
              -111.853846,41.253826,0
              -111.853739,41.253812,0
              -111.853632,41.253805,0
              -111.851819,41.253739,0
              -111.85172,41.253739,0
              -111.851622,41.253745,0
              -111.851525,41.253759,0
              -111.85143,41.253779,0
              -111.851338,41.253805,0
              -111.851249,41.253838,0
              -111.85064,41.25409,0
              -111.850669,41.25413,0
            </coordinates>
          </LinearRing>
        </outerBoundaryIs>
      </Polygon>
    </Placemark>
    <Placemark>
      <name>Pipeline Alignment and ROW</name>
      <styleUrl>#poly-FFEA00-1-79-nodesc</styleUrl>
      <Polygon>
        <outerBoundaryIs>
          <LinearRing>
            <tessellate>1</tessellate>
            <coordinates>
              -111.873198,41.25326,0
              -111.873199,41.253271,0
              -111.875033,41.253209,0
              -111.875161,41.253202,0
              -111.875289,41.253188,0
              -111.875416,41.253169,0
              -111.875541,41.253145,0
              -111.875664,41.253114,0
              -111.875784,41.253078,0
              -111.875901,41.253037,0
              -111.876014,41.25299,0
              -111.876124,41.252938,0
              -111.877567,41.252208,0
              -111.877653,41.252168,0
              -111.877743,41.252132,0
              -111.877836,41.252102,0
              -111.877932,41.252076,0
              -111.87803,41.252055,0
              -111.878004,41.251975,0
              -111.877899,41.251997,0
              -111.877796,41.252025,0
              -111.877696,41.252058,0
              -111.877599,41.252096,0
              -111.877506,41.252139,0
              -111.876063,41.25287,0
              -111.875946,41.252925,0
              -111.875824,41.252973,0
              -111.875698,41.253016,0
              -111.875569,41.253052,0
              -111.875436,41.253081,0
              -111.875302,41.253103,0
              -111.875165,41.253119,0
              -111.875028,41.253127,0
              -111.873194,41.253189,0
              -111.873195,41.253207,0
              -111.873198,41.25326,0
            </coordinates>
          </LinearRing>
        </outerBoundaryIs>
      </Polygon>
    </Placemark>
    <Placemark>
      <name>Pipeline Alignment and ROW</name>
      <styleUrl>#poly-FFEA00-1-79-nodesc</styleUrl>
      <Polygon>
        <outerBoundaryIs>
          <LinearRing>
            <tessellate>1</tessellate>
            <coordinates>
              -111.87801,41.251993,0
              -111.878024,41.252037,0
              -111.878136,41.25202,0
              -111.878249,41.252009,0
              -111.880532,41.251867,0
              -111.880623,41.251858,0
              -111.880712,41.251844,0
              -111.880799,41.251824,0
              -111.880883,41.251798,0
              -111.880965,41.251767,0
              -111.881042,41.251731,0
              -111.881116,41.25169,0
              -111.881184,41.251645,0
              -111.881247,41.251595,0
              -111.882967,41.250126,0
              -111.883042,41.250065,0
              -111.883122,41.250006,0
              -111.883205,41.24995,0
              -111.883292,41.249898,0
              -111.883657,41.249688,0
              -111.883739,41.249645,0
              -111.883706,41.249607,0
              -111.883621,41.249652,0
              -111.883255,41.249862,0
              -111.883166,41.249916,0
              -111.883081,41.249973,0
              -111.882999,41.250033,0
              -111.882922,41.250097,0
              -111.881202,41.251565,0
              -111.881135,41.251618,0
              -111.881061,41.251665,0
              -111.880982,41.251707,0
              -111.880898,41.251743,0
              -111.880809,41.251772,0
              -111.880717,41.251796,0
              -111.880623,41.251812,0
              -111.880527,41.251822,0
              -111.878244,41.251964,0
              -111.878126,41.251975,0
              -111.87801,41.251993,0
            </coordinates>
          </LinearRing>
        </outerBoundaryIs>
      </Polygon>
    </Placemark>
    <Placemark>
      <name>Pipeline Alignment and ROW</name>
      <styleUrl>#poly-FFEA00-1-79-nodesc</styleUrl>
      <Polygon>
        <outerBoundaryIs>
          <LinearRing>
            <tessellate>1</tessellate>
            <coordinates>
              -111.89234,41.246122,0
              -111.892302,41.246088,0
              -111.891395,41.246665,0
              -111.891226,41.246775,0
              -111.89106,41.246887,0
              -111.890897,41.247001,0
              -111.89026,41.24746,0
              -111.89017,41.247532,0
              -111.890084,41.247608,0
              -111.890004,41.247686,0
              -111.889929,41.247768,0
              -111.889859,41.247852,0
              -111.889791,41.24793,0
              -111.889717,41.248004,0
              -111.889637,41.248075,0
              -111.889551,41.248142,0
              -111.88946,41.248205,0
              -111.889365,41.248264,0
              -111.889284,41.248311,0
              -111.88932,41.248347,0
              -111.889401,41.2483,0
              -111.8895,41.248239,0
              -111.889593,41.248174,0
              -111.889681,41.248105,0
              -111.889764,41.248032,0
              -111.88984,41.247955,0
              -111.889911,41.247875,0
              -111.889979,41.247793,0
              -111.890052,41.247714,0
              -111.890131,41.247637,0
              -111.890214,41.247563,0
              -111.890302,41.247493,0
              -111.890938,41.247034,0
              -111.8911,41.24692,0
              -111.891265,41.246809,0
              -111.891433,41.2467,0
              -111.89234,41.246122,0
            </coordinates>
          </LinearRing>
        </outerBoundaryIs>
      </Polygon>
    </Placemark>
    <Placemark>
      <name>Pipeline Alignment and ROW</name>
      <styleUrl>#poly-FFEA00-1-79-nodesc</styleUrl>
      <Polygon>
        <outerBoundaryIs>
          <LinearRing>
            <tessellate>1</tessellate>
            <coordinates>
              -111.854298,41.254019,0
              -111.854501,41.254109,0
              -111.854666,41.254179,0
              -111.854834,41.254242,0
              -111.855006,41.2543,0
              -111.855182,41.254353,0
              -111.85536,41.254399,0
              -111.855541,41.254439,0
              -111.855724,41.254473,0
              -111.856787,41.25465,0
              -111.85689,41.254666,0
              -111.856993,41.254676,0
              -111.857098,41.25468,0
              -111.857203,41.25468,0
              -111.857307,41.254673,0
              -111.85741,41.254662,0
              -111.858582,41.25451,0
              -111.858808,41.254475,0
              -111.859032,41.254436,0
              -111.859255,41.254393,0
              -111.860142,41.254215,0
              -111.860259,41.254195,0
              -111.860378,41.254178,0
              -111.860497,41.254167,0
              -111.860787,41.254145,0
              -111.860934,41.254137,0
              -111.861082,41.254134,0
              -111.861229,41.254137,0
              -111.861377,41.254145,0
              -111.861523,41.254159,0
              -111.861669,41.254179,0
              -111.861813,41.254204,0
              -111.861955,41.254234,0
              -111.862653,41.254398,0
              -111.862771,41.254428,0
              -111.862887,41.254464,0
              -111.863001,41.254503,0
              -111.863111,41.254548,0
              -111.863218,41.254597,0
              -111.863484,41.254728,0
              -111.863576,41.254766,0
              -111.863671,41.254798,0
              -111.863769,41.254824,0
              -111.86387,41.254844,0
              -111.863973,41.254857,0
              -111.864077,41.254865,0
              -111.864181,41.254865,0
              -111.864285,41.254859,0
              -111.864388,41.254847,0
              -111.864489,41.254828,0
              -111.864588,41.254803,0
              -111.864684,41.254772,0
              -111.864776,41.254735,0
              -111.864864,41.254692,0
              -111.865985,41.25413,0
              -111.865985,41.254076,0
              -111.865984,41.254076,0
              -111.86483,41.254655,0
              -111.86474,41.254699,0
              -111.864645,41.254736,0
              -111.864546,41.254767,0
              -111.864444,41.254791,0
              -111.864339,41.254808,0
              -111.864233,41.254818,0
              -111.864126,41.25482,0
              -111.86402,41.254816,0
              -111.863914,41.254804,0
              -111.86381,41.254786,0
              -111.863708,41.25476,0
              -111.86361,41.254728,0
              -111.863516,41.254689,0
              -111.86325,41.254559,0
              -111.863141,41.254509,0
              -111.863028,41.254463,0
              -111.862911,41.254422,0
              -111.862792,41.254386,0
              -111.862671,41.254355,0
              -111.861973,41.254191,0
              -111.861828,41.25416,0
              -111.861681,41.254134,0
              -111.861532,41.254115,0
              -111.861383,41.2541,0
              -111.861232,41.254092,0
              -111.861082,41.254089,0
              -111.860931,41.254091,0
              -111.860781,41.2541,0
              -111.860491,41.254122,0
              -111.860369,41.254134,0
              -111.860247,41.25415,0
              -111.860127,41.254172,0
              -111.859239,41.25435,0
              -111.859018,41.254392,0
              -111.858795,41.254431,0
              -111.858572,41.254466,0
              -111.8574,41.254617,0
              -111.8573,41.254628,0
              -111.8572,41.254634,0
              -111.857099,41.254635,0
              -111.856999,41.254631,0
              -111.856899,41.254621,0
              -111.8568,41.254606,0
              -111.855737,41.254428,0
              -111.855556,41.254395,0
              -111.855378,41.254355,0
              -111.855202,41.25431,0
              -111.85503,41.254259,0
              -111.85486,41.254202,0
              -111.854694,41.254139,0
              -111.854532,41.25407,0
              -111.854328,41.25398,0
              -111.854298,41.254019,0
            </coordinates>
          </LinearRing>
        </outerBoundaryIs>
      </Polygon>
    </Placemark>
    <Placemark>
      <name>Pipeline Alignment and ROW</name>
      <styleUrl>#poly-FFEA00-1-79-nodesc</styleUrl>
      <Polygon>
        <outerBoundaryIs>
          <LinearRing>
            <tessellate>1</tessellate>
            <coordinates>
              -111.871145,41.253229,0
              -111.871145,41.253224,0
              -111.87104,41.253243,0
              -111.870937,41.253267,0
              -111.870836,41.253297,0
              -111.870739,41.253332,0
              -111.870645,41.253373,0
              -111.870555,41.253418,0
              -111.87047,41.253468,0
              -111.870389,41.253522,0
              -111.869576,41.25413,0
              -111.869502,41.25418,0
              -111.869422,41.254224,0
              -111.869337,41.254263,0
              -111.869248,41.254296,0
              -111.869155,41.254322,0
              -111.86906,41.254342,0
              -111.868962,41.254355,0
              -111.868863,41.254361,0
              -111.868764,41.254361,0
              -111.868665,41.254353,0
              -111.868568,41.254339,0
              -111.868473,41.254318,0
              -111.86838,41.254291,0
              -111.868292,41.254257,0
              -111.868208,41.254217,0
              -111.868129,41.254172,0
              -111.867898,41.254006,0
              -111.867829,41.253961,0
              -111.867757,41.25392,0
              -111.867679,41.253885,0
              -111.867599,41.253854,0
              -111.867515,41.253828,0
              -111.867428,41.253808,0
              -111.86734,41.253793,0
              -111.86725,41.253784,0
              -111.867159,41.253781,0
              -111.866899,41.253779,0
              -111.866807,41.253782,0
              -111.866716,41.25379,0
              -111.866626,41.253804,0
              -111.866537,41.253824,0
              -111.866452,41.25385,0
              -111.866369,41.253881,0
              -111.866291,41.253917,0
              -111.865985,41.25407,0
              -111.865985,41.254076,0
              -111.865985,41.25413,0
              -111.865985,41.254136,0
              -111.866331,41.253962,0
              -111.866404,41.253929,0
              -111.866481,41.2539,0
              -111.866561,41.253876,0
              -111.866643,41.253858,0
              -111.866727,41.253844,0
              -111.866813,41.253837,0
              -111.866898,41.253834,0
              -111.867159,41.253836,0
              -111.867254,41.253839,0
              -111.867348,41.25385,0
              -111.86744,41.253867,0
              -111.86753,41.253891,0
              -111.867616,41.253921,0
              -111.867698,41.253957,0
              -111.867776,41.253999,0
              -111.867847,41.254046,0
              -111.86808,41.254213,0
              -111.868159,41.254259,0
              -111.868244,41.254299,0
              -111.868332,41.254334,0
              -111.868424,41.254363,0
              -111.868519,41.254386,0
              -111.868616,41.254403,0
              -111.868715,41.254413,0
              -111.868815,41.254417,0
              -111.868915,41.254414,0
              -111.869014,41.254405,0
              -111.869111,41.254389,0
              -111.869207,41.254367,0
              -111.869299,41.254338,0
              -111.869388,41.254304,0
              -111.869473,41.254264,0
              -111.869553,41.254219,0
              -111.869627,41.254169,0
              -111.87044,41.253562,0
              -111.870526,41.253504,0
              -111.870618,41.253451,0
              -111.870716,41.253405,0
              -111.870818,41.253364,0
              -111.870924,41.253329,0
              -111.871033,41.253301,0
              -111.871145,41.25328,0
              -111.871145,41.253275,0
              -111.871145,41.253229,0
            </coordinates>
          </LinearRing>
        </outerBoundaryIs>
      </Polygon>
    </Placemark>
    <Placemark>
      <name>NULL</name>
      <description><![CDATA[Entity   <Null>    <br>   Handle   <Null>    <br>   Layer   <Null>    <br>   LyrFrzn   <Null>    <br>   LyrOn   <Null>    <br>   Color   <Null>    <br>   Linetype   <Null>    <br>   Elevation   <Null>    <br>   LineWt   <Null>    <br>   RefName   <Null>    <br>   DocUpdate   <Null>    <br>   DocId   <Null>    <br>   GlobalWidth   <Null>    <br>   GlobalID   {EFDC9F37-A021-4E76-B255-CDAAE4048819}    <br>   Shape__Area   6840.559098    <br>   Shape__Length   862.815884    <br>   CreationDate   4/3/2024 7:54:36 PM    <br>   Creator   jhlebasko    <br>   EditDate   4/3/2024 7:54:36 PM    <br>   Editor   jhlebasko]]></description>
      <styleUrl>#poly-FFEA00-1-79</styleUrl>
      <Polygon>
        <outerBoundaryIs>
          <LinearRing>
            <tessellate>1</tessellate>
            <coordinates>
              -111.871145,41.253275,0
              -111.871239,41.253262,0
              -111.871334,41.253254,0
              -111.871429,41.253251,0
              -111.871524,41.253253,0
              -111.871786,41.253263,0
              -111.872074,41.253271,0
              -111.872363,41.253274,0
              -111.872652,41.253269,0
              -111.87265,41.253224,0
              -111.872363,41.253228,0
              -111.872076,41.253226,0
              -111.871789,41.253218,0
              -111.871527,41.253207,0
              -111.871431,41.253206,0
              -111.871335,41.253209,0
              -111.87124,41.253217,0
              -111.871145,41.253229,0
              -111.871145,41.253275,0
            </coordinates>
          </LinearRing>
        </outerBoundaryIs>
      </Polygon>
    </Placemark>
    <Placemark>
      <name>NULL</name>
      <description><![CDATA[Entity   <Null>    <br>   Handle   <Null>    <br>   Layer   <Null>    <br>   LyrFrzn   <Null>    <br>   LyrOn   <Null>    <br>   Color   <Null>    <br>   Linetype   <Null>    <br>   Elevation   <Null>    <br>   LineWt   <Null>    <br>   RefName   <Null>    <br>   DocUpdate   <Null>    <br>   DocId   <Null>    <br>   GlobalWidth   <Null>    <br>   GlobalID   {391F73F0-3946-4DEA-B2CA-087D322B574B}    <br>   Shape__Area   2890.141538    <br>   Shape__Length   338.745477    <br>   CreationDate   4/3/2024 7:54:37 PM    <br>   Creator   jhlebasko    <br>   EditDate   4/3/2024 7:54:37 PM    <br>   Editor   jhlebasko]]></description>
      <styleUrl>#poly-FFEA00-1-79</styleUrl>
      <Polygon>
        <outerBoundaryIs>
          <LinearRing>
            <tessellate>1</tessellate>
            <coordinates>
              -111.872652,41.253269,0
              -111.872652,41.253277,0
              -111.872783,41.253273,0
              -111.873198,41.25326,0
              -111.873195,41.253207,0
              -111.87278,41.25322,0
              -111.87265,41.253224,0
              -111.872652,41.253269,0
            </coordinates>
          </LinearRing>
        </outerBoundaryIs>
      </Polygon>
    </Placemark>
    <Placemark>
      <name>NULL</name>
      <description><![CDATA[Entity   <Null>    <br>   Handle   <Null>    <br>   Layer   <Null>    <br>   LyrFrzn   <Null>    <br>   LyrOn   <Null>    <br>   Color   <Null>    <br>   Linetype   <Null>    <br>   Elevation   <Null>    <br>   LineWt   <Null>    <br>   RefName   <Null>    <br>   DocUpdate   <Null>    <br>   DocId   <Null>    <br>   GlobalWidth   <Null>    <br>   GlobalID   {318E4FEA-AB62-42F5-B44B-A74D6AE3612D}    <br>   Shape__Area   2090.879252    <br>   Shape__Length   286.438629    <br>   CreationDate   4/3/2024 10:58:18 PM    <br>   Creator   jhlebasko    <br>   EditDate   4/3/2024 10:58:18 PM    <br>   Editor   jhlebasko]]></description>
      <styleUrl>#poly-FFEA00-1-79</styleUrl>
      <Polygon>
        <outerBoundaryIs>
          <LinearRing>
            <tessellate>1</tessellate>
            <coordinates>
              -111.920398,41.23709,0
              -111.9204,41.237135,0
              -111.920861,41.237125,0
              -111.920859,41.237079,0
              -111.920398,41.23709,0
            </coordinates>
          </LinearRing>
        </outerBoundaryIs>
      </Polygon>
    </Placemark>
  </Document>
</kml>
